[{"OBJECT_NAME":"WILDFIRE 1","OBJECT_ID":"2023-133H","EPOCH":"2026-03-09T14:37:46.070400","MEAN_MOTION":13.8571565,"ECCENTRICITY":0.0005359,"INCLINATION":80.9966,"RA_OF_ASC_NODE":102.6376,"ARG_OF_PERICENTER":268.5807,"MEAN_ANOMALY":91.4735,"EPHEMERIS_TYPE":0,"CLASSIFICATION_TYPE":"U","NORAD_CAT_ID":57764,"ELEMENT_SET_NO":999,"REV_AT_EPOCH":12726,"BSTAR":9.768e-5,"MEAN_MOTION_DOT":1.23e-6,"MEAN_MOTION_DDOT":0},{"OBJECT_NAME":"SL-8 R\/B","OBJECT_ID":"1984-109B","EPOCH":"2026-03-09T20:51:34.768224","MEAN_MOTION":13.77055753,"ECCENTRICITY":0.00422894,"INCLINATION":82.9418,"RA_OF_ASC_NODE":199.3074,"ARG_OF_PERICENTER":134.2279,"MEAN_ANOMALY":226.2364,"EPHEMERIS_TYPE":0,"CLASSIFICATION_TYPE":"U","NORAD_CAT_ID":15360,"ELEMENT_SET_NO":999,"REV_AT_EPOCH":7997,"BSTAR":0.00011843345,"MEAN_MOTION_DOT":1.33e-6,"MEAN_MOTION_DDOT":0}]
